{
  "type": "FeatureCollection",
  "features": [
    {
      "type": "Feature",
      "properties": {
        "norad_id": 67224,
        "name": "ELECTRON R/B",
        "group": "last-30-days",
        "lat": 3.973701105573762,
        "lon": 83.86488192520288,
        "alt_km": 523.1004283779957,
        "timestamp": "2025-12-27T11:23:18.583285+00:00",
        "meta_object_name": "ELECTRON R/B",
        "meta_object_id": "2025-305F",
        "meta_epoch": "2025-12-18T18:27:13.126752",
        "meta_mean_motion": 15.64663678,
        "meta_eccentricity": 0.0262888,
        "meta_inclination": 45.0188,
        "meta_ra_of_asc_node": 318.3021,
        "meta_arg_of_pericenter": 280.1207,
        "meta_mean_anomaly": 77.0133,
        "meta_ephemeris_type": 0,
        "meta_classification_type": "U",
        "meta_norad_cat_id": 67224,
        "meta_element_set_no": 999,
        "meta_rev_at_epoch": 9,
        "meta_bstar": 0.00022935,
        "meta_mean_motion_dot": 0.00172783,
        "meta_mean_motion_ddot": 8.6369e-06,
        "tle_line1": "1 67224U 25305F   25352.76890193  .00172783  86369-5  22935-3 0  9995",
        "tle_line2": "2 67224  45.0188 318.3021 0262888 280.1207  77.0133 15.64663678    93"
      },
      "geometry": {
        "type": "Point",
        "coordinates": [
          83.86488192520288,
          3.973701105573762
        ]
      }
    },
    {
      "type": "Feature",
      "properties": {
        "norad_id": 67226,
        "name": "TJS-23",
        "group": "last-30-days",
        "lat": 15.593201716910567,
        "lon": 45.65981470003838,
        "alt_km": 3366.3682723898955,
        "timestamp": "2025-12-27T11:23:18.583298+00:00",
        "meta_object_name": "TJS-23",
        "meta_object_id": "2025-306A",
        "meta_epoch": "2025-12-21T08:24:49.367232",
        "meta_mean_motion": 1.72705756,
        "meta_eccentricity": 0.77540409,
        "meta_inclination": 16.401,
        "meta_ra_of_asc_node": 298.8861,
        "meta_arg_of_pericenter": 179.8382,
        "meta_mean_anomaly": 143.9016,
        "meta_ephemeris_type": 0,
        "meta_classification_type": "U",
        "meta_norad_cat_id": 67226,
        "meta_element_set_no": 999,
        "meta_rev_at_epoch": 2,
        "meta_bstar": 0.00071636348,
        "meta_mean_motion_dot": 3.331e-05,
        "meta_mean_motion_ddot": 0,
        "tle_line1": "1 67226U 25306A   25355.35057138  .00003331  00000+0  71636-3 0  9996",
        "tle_line2": "2 67226  16.4010 298.8861 7754040 179.8382 143.9016  1.72705756    20"
      },
      "geometry": {
        "type": "Point",
        "coordinates": [
          45.65981470003838,
          15.593201716910567
        ]
      }
    },
    {
      "type": "Feature",
      "properties": {
        "norad_id": 67227,
        "name": "CZ-5 R/B",
        "group": "last-30-days",
        "lat": -3.058471560694992,
        "lon": -73.65493121118115,
        "alt_km": 37626.299214113526,
        "timestamp": "2025-12-27T11:23:18.583311+00:00",
        "meta_object_name": "CZ-5 R/B",
        "meta_object_id": "2025-306B",
        "meta_epoch": "2025-12-20T19:22:03.368352",
        "meta_mean_motion": 1.92163474,
        "meta_eccentricity": 0.75788222,
        "meta_inclination": 16.4229,
        "meta_ra_of_asc_node": 298.9498,
        "meta_arg_of_pericenter": 179.0262,
        "meta_mean_anomaly": 184.9269,
        "meta_ephemeris_type": 0,
        "meta_classification_type": "U",
        "meta_norad_cat_id": 67227,
        "meta_element_set_no": 999,
        "meta_rev_at_epoch": 2,
        "meta_bstar": 0.00048545663,
        "meta_mean_motion_dot": 1.201e-05,
        "meta_mean_motion_ddot": 0,
        "tle_line1": "1 67227U 25306B   25354.80698343  .00001201  00000+0  48546-3 0  9993",
        "tle_line2": "2 67227  16.4229 298.9498 7578822 179.0262 184.9269  1.92163474    23"
      },
      "geometry": {
        "type": "Point",
        "coordinates": [
          -73.65493121118115,
          -3.058471560694992
        ]
      }
    },
    {
      "type": "Feature",
      "properties": {
        "norad_id": 67228,
        "name": "QPS-SAR-15",
        "group": "last-30-days",
        "lat": -17.934348573334432,
        "lon": -69.27839803157404,
        "alt_km": 578.5051375204885,
        "timestamp": "2025-12-27T11:23:18.583326+00:00",
        "meta_object_name": "QPS-SAR-15",
        "meta_object_id": "2025-307A",
        "meta_epoch": "2025-12-26T16:51:10.626048",
        "meta_mean_motion": 14.9710252,
        "meta_eccentricity": 0.00100497,
        "meta_inclination": 42.0067,
        "meta_ra_of_asc_node": 93.8752,
        "meta_arg_of_pericenter": 300.6818,
        "meta_mean_anomaly": 59.3015,
        "meta_ephemeris_type": 0,
        "meta_classification_type": "U",
        "meta_norad_cat_id": 67228,
        "meta_element_set_no": 999,
        "meta_rev_at_epoch": 81,
        "meta_bstar": 0.00052584748,
        "meta_mean_motion_dot": 5.996e-05,
        "meta_mean_motion_ddot": 0,
        "tle_line1": "1 67228U 25307A   25360.70220632  .00005996  00000+0  52585-3 0  9996",
        "tle_line2": "2 67228  42.0067  93.8752 0010049 300.6818  59.3015 14.97102520   813"
      },
      "geometry": {
        "type": "Point",
        "coordinates": [
          -69.27839803157404,
          -17.934348573334432
        ]
      }
    },
    {
      "type": "Feature",
      "properties": {
        "norad_id": 67229,
        "name": "ELECTRON KICK STAGE R/B",
        "group": "last-30-days",
        "lat": 39.54676655613066,
        "lon": 153.03960443635694,
        "alt_km": 525.0418999513195,
        "timestamp": "2025-12-27T11:23:18.583337+00:00",
        "meta_object_name": "ELECTRON KICK STAGE R/B",
        "meta_object_id": "2025-307B",
        "meta_epoch": "2025-12-26T15:04:32.375136",
        "meta_mean_motion": 15.57717306,
        "meta_eccentricity": 0.0238725,
        "meta_inclination": 42.0005,
        "meta_ra_of_asc_node": 91.5445,
        "meta_arg_of_pericenter": 274.67,
        "meta_mean_anomaly": 82.6921,
        "meta_ephemeris_type": 0,
        "meta_classification_type": "U",
        "meta_norad_cat_id": 67229,
        "meta_element_set_no": 999,
        "meta_rev_at_epoch": 83,
        "meta_bstar": 0.001476,
        "meta_mean_motion_dot": 0.00469702,
        "meta_mean_motion_ddot": 6.6212e-05,
        "tle_line1": "1 67229U 25307B   25360.62815249  .00469702  66212-4  14760-2 0  9995",
        "tle_line2": "2 67229  42.0005  91.5445 0238725 274.6700  82.6921 15.57717306   831"
      },
      "geometry": {
        "type": "Point",
        "coordinates": [
          153.03960443635694,
          39.54676655613066
        ]
      }
    },
    {
      "type": "Feature",
      "properties": {
        "norad_id": 67230,
        "name": "ELECTRON R/B",
        "group": "last-30-days",
        "lat": 38.99861677885971,
        "lon": 150.65843646002298,
        "alt_km": 473.4908799260029,
        "timestamp": "2025-12-27T11:23:18.583347+00:00",
        "meta_object_name": "ELECTRON R/B",
        "meta_object_id": "2025-307C",
        "meta_epoch": "2025-12-21T08:41:59.140320",
        "meta_mean_motion": 15.55087105,
        "meta_eccentricity": 0.02614087,
        "meta_inclination": 41.982,
        "meta_ra_of_asc_node": 123.1026,
        "meta_arg_of_pericenter": 268.141,
        "meta_mean_anomaly": 88.9482,
        "meta_ephemeris_type": 0,
        "meta_classification_type": "U",
        "meta_norad_cat_id": 67230,
        "meta_element_set_no": 999,
        "meta_rev_at_epoch": 1,
        "meta_bstar": 0.00020247584,
        "meta_mean_motion_dot": 0.00071881,
        "meta_mean_motion_ddot": 8.106877e-06,
        "tle_line1": "1 67230U 25307C   25355.36249005  .00071881  81069-5  20248-3 0  9997",
        "tle_line2": "2 67230  41.9820 123.1026 0261408 268.1410  88.9482 15.55087105    19"
      },
      "geometry": {
        "type": "Point",
        "coordinates": [
          150.65843646002298,
          38.99861677885971
        ]
      }
    },
    {
      "type": "Feature",
      "properties": {
        "norad_id": 67231,
        "name": "CZ-12A R/B",
        "group": "last-30-days",
        "lat": -35.20785672660027,
        "lon": -114.51114836221036,
        "alt_km": 186.986704526219,
        "timestamp": "2025-12-27T11:23:18.583357+00:00",
        "meta_object_name": "CZ-12A R/B",
        "meta_object_id": "2025-308A",
        "meta_epoch": "2025-12-27T00:12:02.723904",
        "meta_mean_motion": 16.30419666,
        "meta_eccentricity": 0.0016726,
        "meta_inclination": 69.7045,
        "meta_ra_of_asc_node": 51.8037,
        "meta_arg_of_pericenter": 146.8937,
        "meta_mean_anomaly": 213.3338,
        "meta_ephemeris_type": 0,
        "meta_classification_type": "U",
        "meta_norad_cat_id": 67231,
        "meta_element_set_no": 999,
        "meta_rev_at_epoch": 64,
        "meta_bstar": 0.0005696,
        "meta_mean_motion_dot": 0.02760668,
        "meta_mean_motion_ddot": 4.4413e-06,
        "tle_line1": "1 67231U 25308A   25361.00836486  .02760668  44413-5  56960-3 0  9994",
        "tle_line2": "2 67231  69.7045  51.8037 0016726 146.8937 213.3338 16.30419666   641"
      },
      "geometry": {
        "type": "Point",
        "coordinates": [
          -114.51114836221036,
          -35.20785672660027
        ]
      }
    }
  ]
}